     2.100          NAVIGATION                              RINEX VERSION / TYPE
fic2rin                                 05/09/2009 01:49:41 PGM / RUN BY / DATE
                                                            END OF HEADER
31 09  5  8  9 59 28.0 -.597140751779D-04 -.909494701773D-12  .000000000000D+00
     .800000000000D+01 -.746562500000D+02  .374979905132D-08  .292763587839D+01
    -.374764204025D-05  .709366810042D-02  .116508454084D-04  .515370972824D+04
     .467968000000D+06  .614672899246D-07  .311779066045D+01  .298023223877D-07
     .972907108892D+00  .160687500000D+03 -.114474173127D+01 -.742816655581D-08
     .260367988229D-09  .100000000000D+01  .153000000000D+04  .000000000000D+00
     .240000000000D+01  .000000000000D+00 -.130385160446D-07  .800000000000D+01
     .460806000000D+06  .400000000000D+01
 9 09  5  8  9 59 44.0  .547757372260D-04  .193267624127D-11  .000000000000D+00
     .500000000000D+01 -.927812500000D+02  .358514933586D-08  .213113308860D+01
    -.481121242046D-05  .204536997480D-01  .122003257275D-04  .515364369583D+04
     .467984000000D+06  .318512320518D-06  .308587342331D+01 -.195577740669D-06
     .976451064512D+00  .149250000000D+03  .147174734871D+01 -.724423032270D-08
     .301083969927D-09  .100000000000D+01  .153000000000D+04  .000000000000D+00
     .240000000000D+01  .000000000000D+00 -.558793544769D-08  .500000000000D+01
     .460806000000D+06  .400000000000D+01
18 09  5  8  9 59 44.0 -.587720423937D-04  .329691829393D-11  .000000000000D+00
     .700000000000D+01  .103218750000D+03  .516235789007D-08  .830146131284D+00
     .554323196411D-05  .102735140827D-01  .236555933952D-05  .515359838486D+04
     .467984000000D+06 -.912696123123D-07  .105482631983D+01  .894069671631D-07
     .942610695748D+00  .324437500000D+03 -.242475942565D+01 -.880108088606D-08
     .439304013061D-10  .100000000000D+01  .153000000000D+04  .000000000000D+00
     .240000000000D+01  .000000000000D+00 -.107102096081D-07  .700000000000D+01
     .460806000000D+06  .400000000000D+01
24 09  5  8  9 59 44.0  .187235418707D-03  .295585778076D-11  .000000000000D+00
     .180000000000D+02  .906875000000D+02  .454518932538D-08  .760138700085D+00
     .461563467979D-05  .674479221925D-02  .114794820547D-04  .515368740654D+04
     .467984000000D+06  .800937414169D-07  .285070697653D-01 -.126659870148D-06
     .951286371959D+00  .153531250000D+03 -.646676628837D+00 -.797140346952D-08
    -.199651173416D-09  .100000000000D+01  .153000000000D+04  .000000000000D+00
     .240000000000D+01  .000000000000D+00 -.139698386192D-08  .180000000000D+02
     .460806000000D+06  .400000000000D+01
29 09  5  8  9 59 44.0  .179246999323D-04  .386535248253D-11  .000000000000D+00
     .350000000000D+02 -.278437500000D+02  .495770650838D-08  .213842882491D+01
    -.152550637722D-05  .342665298376D-02  .708922743797D-05  .515368178749D+04
     .467984000000D+06  .745058059692D-07 -.104389101304D+01 -.484287738800D-07
     .959623243657D+00  .245437500000D+03 -.132869083971D+01 -.805069248651D-08
    -.523236080597D-09  .100000000000D+01  .153000000000D+04  .000000000000D+00
     .240000000000D+01  .000000000000D+00 -.884756445885D-08  .350000000000D+02
     .460806000000D+06  .400000000000D+01
 1 09  5  8 10  0  0.0 -.100316014141D-03  .886757334229D-11  .000000000000D+00
     .710000000000D+02  .278750000000D+02  .610918304342D-08  .107699699693D+01
     .127218663692D-05  .332640658598D-02  .646151602268D-05  .515377146530D+04
     .468000000000D+06  .931322574615D-08 -.212366894702D+01  .596046447754D-07
     .960449741170D+00  .251562500000D+03  .896776123514D+00 -.818034074403D-08
     .586095841816D-09  .100000000000D+01  .153000000000D+04  .000000000000D+00
     .240000000000D+01  .630000000000D+02 -.130385160446D-07  .710000000000D+02
     .460806000000D+06  .400000000000D+01
 2 09  5  8 10  0  0.0  .153940636665D-03  .454747350886D-12  .000000000000D+00
     .970000000000D+02  .708750000000D+02  .480198573627D-08 -.146670436142D+01
     .371597707272D-05  .904876796994D-02  .113379210234D-04  .515365863609D+04
     .468000000000D+06  .372529029846D-08 -.349382580615D-01 -.178813934326D-06
     .941886908250D+00  .151656250000D+03  .280473033008D+01 -.809283709915D-08
    -.160720980388D-09  .100000000000D+01  .153000000000D+04  .000000000000D+00
     .240000000000D+01  .000000000000D+00 -.172294676304D-07  .970000000000D+02
     .460806000000D+06  .400000000000D+01
 3 09  5  8 10  0  0.0  .390144996345D-03  .522959453519D-11  .000000000000D+00
     .880000000000D+02 -.327187500000D+02  .575559688657D-08 -.181691069657D+01
    -.176392495632D-05  .118482479593D-01  .512227416039D-05  .515374349022D+04
     .468000000000D+06  .176951289177D-06 -.118229239383D+01 -.614672899246D-07
     .925887126824D+00  .256343750000D+03  .899154272402D+00 -.846642408912D-08
    -.229295265354D-09  .100000000000D+01  .153000000000D+04  .000000000000D+00
     .240000000000D+01  .000000000000D+00 -.419095158577D-08  .880000000000D+02
     .460806000000D+06  .400000000000D+01
 4 09  5  8 10  0  0.0 -.825263559818D-04 -.152340362547D-10  .000000000000D+00
     .920000000000D+02  .758125000000D+02  .484020161383D-08  .139905625135D+01
     .425055623055D-05  .859588617459D-02  .111814588308D-04  .515374187088D+04
     .468000000000D+06 -.316649675369D-07 -.165516160698D-01  .158324837685D-06
     .941106712095D+00  .155937500000D+03  .484410728326D+00 -.811926677148D-08
    -.330370904131D-09  .100000000000D+01  .153000000000D+04  .000000000000D+00
     .240000000000D+01  .000000000000D+00 -.605359673500D-08  .920000000000D+02
     .460806000000D+06  .400000000000D+01
 5 09  5  8 10  0  0.0 -.678729265928D-04 -.188720150618D-10  .000000000000D+00
     .900000000000D+02  .287187500000D+02  .513592821774D-08  .108291441278D+01
     .141374766827D-05  .958907825407D-02  .706315040588D-05  .515356353569D+04
     .468000000000D+06 -.158324837685D-06 -.221299379452D+01  .111758708954D-07
     .945836368670D+00  .233843750000D+03  .130316004459D+01 -.842070789914D-08
     .637526555540D-09  .100000000000D+01  .153000000000D+04  .000000000000D+00
     .685000000000D+01  .630000000000D+02 -.419095158577D-08  .900000000000D+02
     .460806000000D+06  .400000000000D+01
 6 09  5  8 10  0  0.0  .114007852972D-03  .158024704433D-10  .000000000000D+00
     .950000000000D+02 -.338750000000D+02  .565452124779D-08  .656195955275D+00
    -.184401869774D-05  .596552493516D-02  .627152621746D-05  .515369649887D+04
     .468000000000D+06 -.707805156708D-07 -.111483331326D+01 -.651925802231D-07
     .933410477093D+00  .246125000000D+03 -.138026240318D+01 -.860714423639D-08
    -.421088968617D-09  .100000000000D+01  .153000000000D+04  .000000000000D+00
     .340000000000D+01  .000000000000D+00 -.465661287308D-08  .950000000000D+02
     .460806000000D+06  .400000000000D+01
 7 09  5  8 10  0  0.0  .192099250853D-04 -.568434188608D-12  .000000000000D+00
     .100000000000D+03 -.632187500000D+02  .396552232278D-08  .309014525675D+01
    -.318326056004D-05  .250432582106D-02  .113230198622D-04  .515367600441D+04
     .468000000000D+06 -.186264514923D-07  .312000062204D+01 -.745058059692D-08
     .967524205267D+00  .163156250000D+03  .288596413172D+01 -.765103298195D-08
     .285726187357D-09  .100000000000D+01  .153000000000D+04  .000000000000D+00
     .240000000000D+01  .000000000000D+00 -.107102096081D-07  .100000000000D+03
     .460806000000D+06  .400000000000D+01
 8 09  5  8 10  0  0.0 -.202066730708D-03 -.181898940355D-11  .000000000000D+00
     .440000000000D+02 -.573437500000D+02  .346907307225D-08  .237161872161D+01
    -.289082527161D-05  .105513719609D-01  .118929892778D-04  .515365792084D+04
     .468000000000D+06 -.100582838058D-06 -.310325788157D+01  .115483999252D-06
     .988730371697D+00  .164093750000D+03  .298931928378D+01 -.734709175015D-08
     .242510101519D-09  .100000000000D+01  .153000000000D+04  .000000000000D+00
     .240000000000D+01  .000000000000D+00 -.372529029846D-08  .440000000000D+02
     .460806000000D+06  .400000000000D+01
10 09  5  8 10  0  0.0 -.156736932695D-04 -.568434188608D-12  .000000000000D+00
     .340000000000D+02  .921562500000D+02  .477055585566D-08 -.558556434392D+00
     .479258596897D-05  .862383132335D-02  .209361314774D-05  .515359782600D+04
     .468000000000D+06  .100582838058D-06  .104909543481D+01  .856816768646D-07
     .958565126714D+00  .336812500000D+03  .623714732496D+00 -.856749972790D-08
     .107861635727D-09  .100000000000D+01  .153000000000D+04  .000000000000D+00
     .240000000000D+01  .000000000000D+00 -.279396772385D-08  .340000000000D+02
     .460806000000D+06  .400000000000D+01
11 09  5  8 10  0  0.0 -.176904723048D-05 -.136424205266D-11  .000000000000D+00
     .103000000000D+03  .321875000000D+02  .594489048569D-08  .291888184390D+01
     .158324837685D-05  .931498268619D-02  .112652778625D-04  .515368803215D+04
     .468000000000D+06 -.726431608200D-07 -.233944708302D+00 -.122934579849D-06
     .889908162007D+00  .122906250000D+03  .694324097431D+00 -.839070664947D-08
    -.392516349881D-09  .100000000000D+01  .153000000000D+04  .000000000000D+00
     .240000000000D+01  .000000000000D+00 -.116415321827D-07  .103000000000D+03
     .460806000000D+06  .400000000000D+01
12 09  5  8 10  0  0.0 -.284061767161D-03  .511590769747D-11  .000000000000D+00
     .720000000000D+02  .289375000000D+02  .466912305915D-08 -.313330211836D+01
     .150129199028D-05  .335719168652D-02  .628456473351D-05  .515365690231D+04
     .468000000000D+06 -.931322574615D-08 -.211168996375D+01  .838190317154D-07
     .966570489472D+00  .256031250000D+03 -.728196672337D+00 -.799569019545D-08
     .632883504995D-09  .100000000000D+01  .153000000000D+04  .000000000000D+00
     .240000000000D+01  .000000000000D+00 -.116415321827D-07  .720000000000D+02
     .460806000000D+06  .400000000000D+01
